{"type": "FeatureCollection", "features": [ {"type": "Feature", "properties": {"norad_id": 34572, "name": "COSMOS 2251 DEB", "group": "cosmos-2251-debris", "lat": 56.5839430653268, "lon": -115.72609084201999, "alt_km": 686.267911912596, "timestamp": "2025-12-26T06:43:29.906474+00:00", "meta": {"OBJECT_NAME": "COSMOS 2251 DEB", "OBJECT_ID": "1993-036VJ", "EPOCH": "2025-12-24T06:18:12.267936", "MEAN_MOTION": 14.50228885, "ECCENTRICITY": 0.00614008, "INCLINATION": 74.0107, "RA_OF_ASC_NODE": 93.8275, "ARG_OF_PERICENTER": 165.5586, "MEAN_ANOMALY": 225.3704, "EPHEMERIS_TYPE": 0, "CLASSIFICATION_TYPE": "U", "NORAD_CAT_ID": 34572, "ELEMENT_SET_NO": 999, "REV_AT_EPOCH": 87545, "BSTAR": 0.0025670587, "MEAN_MOTION_DOT": 0.00010221, "MEAN_MOTION_DDOT": 0}, "tle": {"line1": "1 34572U 93036VJ  25358.26264199  .00010221  00000+0  25671-2 0  9992", "line2": "2 34572  74.0107  93.8275 0061400 165.5586 225.3704 14.50228885875458"}}, "geometry": {"type": "Point", "coordinates": [-115.72609084201999, 56.5839430653268]}}, {"type": "Feature", "properties": {"norad_id": 34574, "name": "COSMOS 2251 DEB", "group": "cosmos-2251-debris", "lat": -67.21410689959177, "lon": -25.938360036720578, "alt_km": 679.219942296334, "timestamp": "2025-12-26T06:43:29.906484+00:00", "meta": {"OBJECT_NAME": "COSMOS 2251 DEB", "OBJECT_ID": "1993-036VL", "EPOCH": "2025-12-25T12:00:04.317408", "MEAN_MOTION": 14.7074081, "ECCENTRICITY": 0.006727, "INCLINATION": 74.0691, "RA_OF_ASC_NODE": 18.4128, "ARG_OF_PERICENTER": 35.3781, "MEAN_ANOMALY": 82.9263, "EPHEMERIS_TYPE": 0, "CLASSIFICATION_TYPE": "U", "NORAD_CAT_ID": 34574, "ELEMENT_SET_NO": 999, "REV_AT_EPOCH": 88966, "BSTAR": 0.0010115, "MEAN_MOTION_DOT": 6.363e-05, "MEAN_MOTION_DDOT": 0}, "tle": {"line1": "1 34574U 93036VL  25359.50004997  .00006363  00000+0  10115-2 0  9999", "line2": "2 34574  74.0691  18.4128 0067270  35.3781  82.9263 14.70740810889664"}}, "geometry": {"type": "Point", "coordinates": [-25.938360036720578, -67.21410689959177]}}, {"type": "Feature", "properties": {"norad_id": 34576, "name": "COSMOS 2251 DEB", "group": "cosmos-2251-debris", "lat": -53.33534912552474, "lon": -44.83855428281909, "alt_km": 708.6164570635656, "timestamp": "2025-12-26T06:43:29.906494+00:00", "meta": {"OBJECT_NAME": "COSMOS 2251 DEB", "OBJECT_ID": "1993-036VN", "EPOCH": "2025-12-24T14:06:21.885120", "MEAN_MOTION": 14.5550624, "ECCENTRICITY": 0.00082869, "INCLINATION": 74.0348, "RA_OF_ASC_NODE": 115.75, "ARG_OF_PERICENTER": 253.9656, "MEAN_ANOMALY": 117.9687, "EPHEMERIS_TYPE": 0, "CLASSIFICATION_TYPE": "U", "NORAD_CAT_ID": 34576, "ELEMENT_SET_NO": 999, "REV_AT_EPOCH": 88639, "BSTAR": 0.00092219532, "MEAN_MOTION_DOT": 3.99e-05, "MEAN_MOTION_DDOT": 0}, "tle": {"line1": "1 34576U 93036VN  25358.58775330  .00003990  00000+0  92220-3 0  9995", "line2": "2 34576  74.0348 115.7500 0008286 253.9656 117.9687 14.55506240886397"}}, "geometry": {"type": "Point", "coordinates": [-44.83855428281909, -53.33534912552474]}}, {"type": "Feature", "properties": {"norad_id": 34579, "name": "COSMOS 2251 DEB", "group": "cosmos-2251-debris", "lat": -37.51399679270185, "lon": -173.99792867301744, "alt_km": 735.8208800110915, "timestamp": "2025-12-26T06:43:29.906504+00:00", "meta": {"OBJECT_NAME": "COSMOS 2251 DEB", "OBJECT_ID": "1993-036VR", "EPOCH": "2025-12-25T23:10:11.210592", "MEAN_MOTION": 14.45342439, "ECCENTRICITY": 0.00274876, "INCLINATION": 74.0512, "RA_OF_ASC_NODE": 199.27, "ARG_OF_PERICENTER": 265.93, "MEAN_ANOMALY": 217.2957, "EPHEMERIS_TYPE": 0, "CLASSIFICATION_TYPE": "U", "NORAD_CAT_ID": 34579, "ELEMENT_SET_NO": 999, "REV_AT_EPOCH": 88365, "BSTAR": 0.00035639746, "MEAN_MOTION_DOT": 1.231e-05, "MEAN_MOTION_DDOT": 0}, "tle": {"line1": "1 34579U 93036VR  25359.96540753  .00001231  00000+0  35640-3 0  9999", "line2": "2 34579  74.0512 199.2700 0027487 265.9300 217.2957 14.45342439883652"}}, "geometry": {"type": "Point", "coordinates": [-173.99792867301744, -37.51399679270185]}}, {"type": "Feature", "properties": {"norad_id": 34582, "name": "COSMOS 2251 DEB", "group": "cosmos-2251-debris", "lat": 16.160185644665873, "lon": 62.43263143457311, "alt_km": 781.527416133018, "timestamp": "2025-12-26T06:43:29.906515+00:00", "meta": {"OBJECT_NAME": "COSMOS 2251 DEB", "OBJECT_ID": "1993-036VU", "EPOCH": "2025-12-25T18:19:42.129120", "MEAN_MOTION": 14.43387962, "ECCENTRICITY": 0.00485307, "INCLINATION": 74.0188, "RA_OF_ASC_NODE": 248.1564, "ARG_OF_PERICENTER": 355.4266, "MEAN_ANOMALY": 4.644, "EPHEMERIS_TYPE": 0, "CLASSIFICATION_TYPE": "U", "NORAD_CAT_ID": 34582, "ELEMENT_SET_NO": 999, "REV_AT_EPOCH": 88135, "BSTAR": 0.00067898132, "MEAN_MOTION_DOT": 2.298e-05, "MEAN_MOTION_DDOT": 0}, "tle": {"line1": "1 34582U 93036VU  25359.76368205  .00002298  00000+0  67898-3 0  9995", "line2": "2 34582  74.0188 248.1564 0048530 355.4266   4.6440 14.43387962881353"}}, "geometry": {"type": "Point", "coordinates": [62.43263143457311, 16.160185644665873]}}, {"type": "Feature", "properties": {"norad_id": 34588, "name": "COSMOS 2251 DEB", "group": "cosmos-2251-debris", "lat": 25.32691297242098, "lon": 55.38248639819865, "alt_km": 761.2299065676707, "timestamp": "2025-12-26T06:43:29.906525+00:00", "meta": {"OBJECT_NAME": "COSMOS 2251 DEB", "OBJECT_ID": "1993-036WA", "EPOCH": "2025-12-25T18:38:58.498944", "MEAN_MOTION": 14.42058013, "ECCENTRICITY": 0.00192991, "INCLINATION": 74.0424, "RA_OF_ASC_NODE": 244.0973, "ARG_OF_PERICENTER": 295.4597, "MEAN_ANOMALY": 127.2044, "EPHEMERIS_TYPE": 0, "CLASSIFICATION_TYPE": "U", "NORAD_CAT_ID": 34588, "ELEMENT_SET_NO": 999, "REV_AT_EPOCH": 88138, "BSTAR": 0.00040233422, "MEAN_MOTION_DOT": 1.298e-05, "MEAN_MOTION_DDOT": 0}, "tle": {"line1": "1 34588U 93036WA  25359.77706596  .00001298  00000+0  40233-3 0  9994", "line2": "2 34588  74.0424 244.0973 0019299 295.4597 127.2044 14.42058013881387"}}, "geometry": {"type": "Point", "coordinates": [55.38248639819865, 25.32691297242098]}}, {"type": "Feature", "properties": {"norad_id": 34589, "name": "COSMOS 2251 DEB", "group": "cosmos-2251-debris", "lat": 27.63530332837073, "lon": -155.72307657988014, "alt_km": 1125.5941339832325, "timestamp": "2025-12-26T06:43:29.906535+00:00", "meta": {"OBJECT_NAME": "COSMOS 2251 DEB", "OBJECT_ID": "1993-036WB", "EPOCH": "2025-12-25T11:14:58.253856", "MEAN_MOTION": 13.86068868, "ECCENTRICITY": 0.0252572, "INCLINATION": 73.9253, "RA_OF_ASC_NODE": 34.3419, "ARG_OF_PERICENTER": 335.1465, "MEAN_ANOMALY": 88.1559, "EPHEMERIS_TYPE": 0, "CLASSIFICATION_TYPE": "U", "NORAD_CAT_ID": 34589, "ELEMENT_SET_NO": 999, "REV_AT_EPOCH": 84888, "BSTAR": 0.00047786, "MEAN_MOTION_DOT": 6.82e-06, "MEAN_MOTION_DDOT": 0}, "tle": {"line1": "1 34589U 93036WB  25359.46872979  .00000682  00000+0  47786-3 0  9996", "line2": "2 34589  73.9253  34.3419 0252572 335.1465  88.1559 13.86068868848880"}}, "geometry": {"type": "Point", "coordinates": [-155.72307657988014, 27.63530332837073]}}, {"type": "Feature", "properties": {"norad_id": 34590, "name": "COSMOS 2251 DEB", "group": "cosmos-2251-debris", "lat": -60.25547195644335, "lon": 146.98065142226716, "alt_km": 764.9187055796774, "timestamp": "2025-12-26T06:43:29.906545+00:00", "meta": {"OBJECT_NAME": "COSMOS 2251 DEB", "OBJECT_ID": "1993-036WC", "EPOCH": "2025-12-25T21:36:51.911712", "MEAN_MOTION": 14.5484121, "ECCENTRICITY": 0.0068093, "INCLINATION": 74.0446, "RA_OF_ASC_NODE": 297.6543, "ARG_OF_PERICENTER": 63.4192, "MEAN_ANOMALY": 353.7708, "EPHEMERIS_TYPE": 0, "CLASSIFICATION_TYPE": "U", "NORAD_CAT_ID": 34590, "ELEMENT_SET_NO": 999, "REV_AT_EPOCH": 89312, "BSTAR": 0.00014463752, "MEAN_MOTION_DOT": 6.1e-06, "MEAN_MOTION_DDOT": 0}, "tle": {"line1": "1 34590U 93036WC  25359.90060083  .00000610  00000+0  14464-3 0  9990", "line2": "2 34590  74.0446 297.6543 0068093  63.4192 353.7708 14.54841210893121"}}, "geometry": {"type": "Point", "coordinates": [146.98065142226716, -60.25547195644335]}}, {"type": "Feature", "properties": {"norad_id": 34609, "name": "COSMOS 2251 DEB", "group": "cosmos-2251-debris", "lat": -23.907701818546105, "lon": -90.58724805339256, "alt_km": 830.9788476994572, "timestamp": "2025-12-26T06:43:29.906556+00:00", "meta": {"OBJECT_NAME": "COSMOS 2251 DEB", "OBJECT_ID": "1993-036WE", "EPOCH": "2025-12-24T00:34:30.192384", "MEAN_MOTION": 14.2183063, "ECCENTRICITY": 0.01457677, "INCLINATION": 73.7329, "RA_OF_ASC_NODE": 86.098, "ARG_OF_PERICENTER": 303.8546, "MEAN_ANOMALY": 238.3232, "EPHEMERIS_TYPE": 0, "CLASSIFICATION_TYPE": "U", "NORAD_CAT_ID": 34609, "ELEMENT_SET_NO": 999, "REV_AT_EPOCH": 86792, "BSTAR": 0.00072342659, "MEAN_MOTION_DOT": 1.747e-05, "MEAN_MOTION_DDOT": 0}, "tle": {"line1": "1 34609U 93036WE  25358.02396056  .00001747  00000+0  72343-3 0  9997", "line2": "2 34609  73.7329  86.0980 0145767 303.8546 238.3232 14.21830630867928"}}, "geometry": {"type": "Point", "coordinates": [-90.58724805339256, -23.907701818546105]}}, {"type": "Feature", "properties": {"norad_id": 34610, "name": "COSMOS 2251 DEB", "group": "cosmos-2251-debris", "lat": 14.425360793928636, "lon": -117.19936145515196, "alt_km": 740.2494467382758, "timestamp": "2025-12-26T06:43:29.906566+00:00", "meta": {"OBJECT_NAME": "COSMOS 2251 DEB", "OBJECT_ID": "1993-036WF", "EPOCH": "2025-12-24T23:56:39.229728", "MEAN_MOTION": 14.07136611, "ECCENTRICITY": 0.01807447, "INCLINATION": 74.0166, "RA_OF_ASC_NODE": 240.8215, "ARG_OF_PERICENTER": 8.614, "MEAN_ANOMALY": 351.8026, "EPHEMERIS_TYPE": 0, "CLASSIFICATION_TYPE": "U", "NORAD_CAT_ID": 34610, "ELEMENT_SET_NO": 999, "REV_AT_EPOCH": 85732, "BSTAR": 0.0020375522, "MEAN_MOTION_DOT": 3.934e-05, "MEAN_MOTION_DDOT": 0}, "tle": {"line1": "1 34610U 93036WF  25358.99767627  .00003934  00000+0  20376-2 0  9999", "line2": "2 34610  74.0166 240.8215 0180744   8.6140 351.8026 14.07136611857325"}}, "geometry": {"type": "Point", "coordinates": [-117.19936145515196, 14.425360793928636]}}]}